iata,name,latitude, longitude,elevation_ft,continent,country,iso_country,region_name,iso_region,local_region,municipality,scheduled_service,gps_code
BCN,Josep Tarradellas Barcelona-El Prat Airport,41.2971,2.07846,12.0,EU,Spain,ES,Catalonia,ES-CT,CT,Barcelona,1,LEBL
MAD,Adolfo Suárez Madrid–Barajas Airport,40.471926,-3.56264,1998.0,EU,Spain,ES,Madrid (community),ES-MD,MD,Madrid,1,LEMD
PMI,Palma de Mallorca Airport,39.551701,2.73881,27.0,EU,Spain,ES,Islas Baleares,ES-IB,IB,Palma de Mallorca,1,LEPA
AGP,Málaga-Costa del Sol Airport,36.6749,-4.49911,53.0,EU,Spain,ES,Andalucía,ES-AN,AN,Málaga,1,LEMG
LPA,Gran Canaria Airport,27.9319,-15.3866,78.0,AF,Spain,ES,Canary Islands,ES-CN,CN,Gran Canaria Island,1,GCLP
TFS,Tenerife Sur Airport,28.0445,-16.5725,209.0,AF,Spain,ES,Canary Islands,ES-CN,CN,Tenerife,1,GCTS
ALC,Alicante-Elche Miguel Hernández Airport,38.2822,-0.558156,142.0,EU,Spain,ES,Valencia (community),ES-VC,VC,Alicante,1,LEAL
VLC,Valencia Airport,39.4893,-0.481625,240.0,EU,Spain,ES,Valencia (community),ES-VC,VC,Valencia,1,LEVC
SVQ,Sevilla Airport,37.417999,-5.89311,112.0,EU,Spain,ES,Andalucía,ES-AN,AN,Sevilla,1,LEZL
GRO,Girona-Costa Brava Airport,41.904639,2.761774,468.0,EU,Spain,ES,Catalonia,ES-CT,CT,Girona,1,LEGE
IBZ,Ibiza Airport,38.872898,1.37312,24.0,EU,Spain,ES,Islas Baleares,ES-IB,IB,Ibiza (Eivissa),1,LEIB
ACE,César Manrique-Lanzarote Airport,28.945499,-13.6052,46.0,AF,Spain,ES,Canary Islands,ES-CN,CN,San Bartolomé,1,GCRR
BIO,Bilbao Airport,43.301102,-2.91061,138.0,EU,Spain,ES,Basque Country,ES-PV,PV,Bilbao,1,LEBB
FUE,Fuerteventura Airport,28.4527,-13.8638,85.0,AF,Spain,ES,Canary Islands,ES-CN,CN,El Matorral,1,GCFV
MAH,Menorca Airport,39.862598,4.21865,302.0,EU,Spain,ES,Islas Baleares,ES-IB,IB,Mahón (Maó),1,LEMH
SCQ,Santiago-Rosalía de Castro Airport,42.896301,-8.41514,1213.0,EU,Spain,ES,Galicia,ES-GA,GA,Santiago de Compostela,1,LEST
TFN,Tenerife Norte-Ciudad de La Laguna Airport,28.4827,-16.341499,2076.0,AF,Spain,ES,Canary Islands,ES-CN,CN,Tenerife,1,GCXO
XRY,Jerez Airport,36.744598,-6.06011,93.0,EU,Spain,ES,Andalucía,ES-AN,AN,Jerez de la Frontera,1,LEJR
REU,Reus Airport,41.1474,1.16717,233.0,EU,Spain,ES,Catalonia,ES-CT,CT,Reus,1,LERS
GRX,F.G.L. Airport Granada-Jaén Airport,37.188702,-3.77736,1860.0,EU,Spain,ES,Andalucía,ES-AN,AN,Granada,1,LEGR
LEI,Almería Airport,36.843899,-2.3701,70.0,EU,Spain,ES,Andalucía,ES-AN,AN,Almería,1,LEAM
SDR,Seve Ballesteros-Santander Airport,43.427101,-3.82001,16.0,EU,Spain,ES,Cantabria,ES-CB,CB,Santander,1,LEXJ
ZAZ,Zaragoza Airport,41.666199,-1.04155,863.0,EU,Spain,ES,Aragón,ES-AR,AR,Zaragoza,1,LEZG
EAS,San Sebastián Airport,43.356499,-1.79061,16.0,EU,Spain,ES,Basque Country,ES-PV,PV,Hondarribia,1,LESO
OVD,Asturias Airport,43.563599,-6.03462,416.0,EU,Spain,ES,Asturias,ES-AS,AS,Ranón,1,LEAS
VGO,Vigo Airport,42.2318,-8.62677,856.0,EU,Spain,ES,Galicia,ES-GA,GA,Vigo,1,LEVX
SPC,La Palma Airport,28.626499,-17.7556,107.0,AF,Spain,ES,Canary Islands,ES-CN,CN,"Sta Cruz de la Palma, La Palma Island",1,GCLA
MJV,San Javier Airport,37.775002,-0.812389,11.0,EU,Spain,ES,Murcia (region),ES-MC,MC,San Javier,0,LELC
LCG,A Coru?a Airport,43.302101,-8.37726,326.0,EU,Spain,ES,Galicia,ES-GA,GA,Culleredo,1,LECO
VLL,Valladolid Airport,41.7061,-4.85194,2776.0,EU,Spain,ES,Castilla y León,ES-CL,CL,Valladolid,1,LEVD
ROZ,Rota Naval Station Airport,36.64519882,-6.349460125,86.0,EU,Spain,ES,Andalucía,ES-AN,AN,Rota,0,LERT
VIT,Vitoria Airport,42.882801,-2.72447,1682.0,EU,Spain,ES,Basque Country,ES-PV,PV,Alava,1,LEVT
TOJ,Madrid–Torrejón Airport / Torrejón Air Base,40.487875,-3.456808,2026.0,EU,Spain,ES,Madrid (community),ES-MD,MD,Madrid,0,LETO
PNA,Pamplona Airport,42.77,-1.64633,1504.0,EU,Spain,ES,Navarra,ES-NC,NC,Pamplona,1,LEPP
SLM,Salamanca Airport,40.952099,-5.50199,2595.0,EU,Spain,ES,Castilla y León,ES-CL,CL,Salamanca,1,LESA
RGS,Burgos Airport,42.357601,-3.62076,2962.0,EU,Spain,ES,Castilla y León,ES-CL,CL,Burgos,1,LEBG
LEU,Pirineus - la Seu d'Urgel Airport,42.3386,1.40917,2625.0,EU,Spain,ES,Catalonia,ES-CT,CT,La Seu d'Urgell Pyrenees and Andorra,1,LESU
ODB,Córdoba Airport,37.841999,-4.84888,297.0,EU,Spain,ES,Andalucía,ES-AN,AN,Córdoba,0,LEBA
RMU,Región de Murcia International Airport,37.803,-1.125,644.0,EU,Spain,ES,Murcia (region),ES-MC,MC,Corvera,1,LEMI
ILD,Lleida-Alguaire Airport,41.728185,0.535023,1152.0,EU,Spain,ES,Catalonia,ES-CT,CT,Lleida,1,LEDA
OZP,Moron Air Base,37.17490005493164,-5.615940094,285.0,EU,Spain,ES,Andalucía,ES-AN,AN,Morón,0,LEMO
CQM,Ciudad Real International Airport,38.856479,-3.969944,,EU,Spain,ES,Castilla–La Mancha,ES-CM,CM,Ciudad Real,0,LERL
TEV,Teruel Airport,40.410269,-1.217366,3380.0,EU,Spain,ES,Aragón,ES-AR,AR,Teruel,0,LETL
GMZ,La Gomera Airport,28.0296,-17.2146,716.0,AF,Spain,ES,Canary Islands,ES-CN,CN,"Alajero, La Gomera Island",1,GCGM
MLN,Melilla Airport,35.2798,-2.95626,156.0,AF,Spain,ES,Melilla (city),ES-ML,ML,Melilla,1,GEML
CDT,Castellón-Costa Azahar Airport,40.213889,0.073333,1182.0,EU,Spain,ES,Valencia (community),ES-VC,VC,Castellón de la Plana,1,LECH
ABC,Albacete Airport / Los Llanos Air Base,38.948502,-1.86352,2302.0,EU,Spain,ES,Castilla–La Mancha,ES-CM,CM,Albacete,0,LEAB
BJZ,Badajoz Airport,38.8913,-6.82133,609.0,EU,Spain,ES,Extremadura,ES-EX,EX,Badajoz,1,LEBZ
VDE,El Hierro Airport,27.8148,-17.8871,103.0,AF,Spain,ES,Canary Islands,ES-CN,CN,El Hierro Island,1,GCHI
LEN,León Airport,42.589001,-5.65556,3006.0,EU,Spain,ES,Castilla y León,ES-CL,CL,León,1,LELN
RJL,Logro?o-Agoncillo Airport,42.460953,-2.322235,1161.0,EU,Spain,ES,La Rioja,ES-RI,RI,Logro?o,0,LERJ
JCU,Ceuta Heliport,35.892657,-5.306321,8.0,AF,Spain,ES,Ceuta (city),ES-CE,CE,Ceuta,1,GECE
HSK,Huesca-Pirineos Airport,42.076099,-0.316667,1769.0,EU,Spain,ES,Aragón,ES-AR,AR,Monflorite/Alcalá del Obispo,0,LEHC
